NUSAT-49 (KLARA DAN VO*)
1 60500U 24149AJ  26068.79810190  .00012912  00000+0  43568-3 0  9991
2 60500  97.3807 150.7380 0001132 286.7761  73.3356 15.30828857 86935
STARLINK-33913          
1 65215U 25176T   26068.47449394  .00024915  00000+0  85110-3 0  9994
2 65215  53.1584 156.1278 0001160  63.2631 296.8489 15.30178168 33053
